{"11001":{"inw":14157,"opp":10.93,"zip":2630,"name":"Aartselaar","pro":"Antwerpen","gew":"vlaams"},"11002":{"inw":513570,"opp":204.51,"zip":2000,"name":"Antwerpen","pro":"Antwerpen","gew":"vlaams"},"11004":{"inw":12792,"opp":20.66,"zip":2530,"name":"Boechout","pro":"Antwerpen","gew":"vlaams"},"11005":{"inw":17559,"opp":7.37,"zip":2850,"name":"Boom","pro":"Antwerpen","gew":"vlaams"},"11007":{"inw":10465,"opp":3.92,"zip":2150,"name":"Borsbeek","pro":"Antwerpen","gew":"vlaams"},"11008":{"inw":37480,"opp":38.49,"zip":2930,"name":"Brasschaat","pro":"Antwerpen","gew":"vlaams"},"11009":{"inw":28248,"opp":90.84,"zip":2960,"name":"Brecht","pro":"Antwerpen","gew":"vlaams"},"11013":{"inw":21291,"opp":8.65,"zip":2650,"name":"Edegem","pro":"Antwerpen","gew":"vlaams"},"11016":{"inw":18427,"opp":47.48,"zip":2910,"name":"Essen","pro":"Antwerpen","gew":"vlaams"},"11018":{"inw":11040,"opp":5.44,"zip":2620,"name":"Hemiksem","pro":"Antwerpen","gew":"vlaams"},"11021":{"inw":8193,"opp":5.99,"zip":2540,"name":"Hove","pro":"Antwerpen","gew":"vlaams"},"11022":{"inw":18192,"opp":59.45,"zip":2920,"name":"Kalmthout","pro":"Antwerpen","gew":"vlaams"},"11023":{"inw":26702,"opp":37.11,"zip":2950,"name":"Kapellen","pro":"Antwerpen","gew":"vlaams"},"11024":{"inw":20886,"opp":23.67,"zip":2550,"name":"Kontich","pro":"Antwerpen","gew":"vlaams"},"11025":{"inw":8767,"opp":5.57,"zip":2547,"name":"Lint","pro":"Antwerpen","gew":"vlaams"},"11029":{"inw":25356,"opp":7.78,"zip":2640,"name":"Mortsel","pro":"Antwerpen","gew":"vlaams"},"11030":{"inw":9962,"opp":5.27,"zip":2845,"name":"Niel","pro":"Antwerpen","gew":"vlaams"},"11035":{"inw":18696,"opp":43.58,"zip":2520,"name":"Ranst","pro":"Antwerpen","gew":"vlaams"},"11037":{"inw":15118,"opp":19.9,"zip":2840,"name":"Rumst","pro":"Antwerpen","gew":"vlaams"},"11038":{"inw":8208,"opp":7.8,"zip":2627,"name":"Schelle","pro":"Antwerpen","gew":"vlaams"},"11039":{"inw":19375,"opp":35.99,"zip":2970,"name":"Schilde","pro":"Antwerpen","gew":"vlaams"},"11040":{"inw":34016,"opp":29.55,"zip":2900,"name":"Schoten","pro":"Antwerpen","gew":"vlaams"},"11044":{"inw":18407,"opp":21.51,"zip":2940,"name":"Stabroek","pro":"Antwerpen","gew":"vlaams"},"11050":{"inw":9314,"opp":7.86,"zip":2110,"name":"Wijnegem","pro":"Antwerpen","gew":"vlaams"},"11052":{"inw":12547,"opp":13.01,"zip":2160,"name":"Wommelgem","pro":"Antwerpen","gew":"vlaams"},"11053":{"inw":20124,"opp":89.43,"zip":2990,"name":"Wuustwezel","pro":"Antwerpen","gew":"vlaams"},"11054":{"inw":12727,"opp":40.1,"zip":2240,"name":"Zandhoven","pro":"Antwerpen","gew":"vlaams"},"11055":{"inw":21704,"opp":38.65,"zip":2980,"name":"Zoersel","pro":"Antwerpen","gew":"vlaams"},"11056":{"inw":18936,"opp":17.82,"zip":2070,"name":"Zwijndrecht","pro":"Antwerpen","gew":"vlaams"},"11057":{"inw":15083,"opp":51.99,"zip":2390,"name":"Malle","pro":"Antwerpen","gew":"vlaams"},"12002":{"inw":11174,"opp":24.57,"zip":2590,"name":"Berlaar","pro":"Antwerpen","gew":"vlaams"},"12005":{"inw":14769,"opp":29.27,"zip":2820,"name":"Bonheiden","pro":"Antwerpen","gew":"vlaams"},"12007":{"inw":20940,"opp":45.76,"zip":2880,"name":"Bornem","pro":"Antwerpen","gew":"vlaams"},"12009":{"inw":17131,"opp":22.71,"zip":2570,"name":"Duffel","pro":"Antwerpen","gew":"vlaams"},"12014":{"inw":41812,"opp":86.46,"zip":2220,"name":"Heist-Op-Den-Berg","pro":"Antwerpen","gew":"vlaams"},"12021":{"inw":34652,"opp":49.7,"zip":2500,"name":"Lier","pro":"Antwerpen","gew":"vlaams"},"12025":{"inw":83975,"opp":65.19,"zip":2800,"name":"Mechelen","pro":"Antwerpen","gew":"vlaams"},"12026":{"inw":22559,"opp":39.09,"zip":2560,"name":"Nijlen","pro":"Antwerpen","gew":"vlaams"},"12029":{"inw":17195,"opp":34.96,"zip":2580,"name":"Putte","pro":"Antwerpen","gew":"vlaams"},"12030":{"inw":17035,"opp":33.41,"zip":2870,"name":"Puurs","pro":"Antwerpen","gew":"vlaams"},"12034":{"inw":8303,"opp":15.58,"zip":2890,"name":"Sint-Amands","pro":"Antwerpen","gew":"vlaams"},"12035":{"inw":20427,"opp":36.12,"zip":2860,"name":"Sint-Katelijne-Waver","pro":"Antwerpen","gew":"vlaams"},"12040":{"inw":25446,"opp":27.41,"zip":2830,"name":"Willebroek","pro":"Antwerpen","gew":"vlaams"},"13001":{"inw":13053,"opp":55.38,"zip":2370,"name":"Arendonk","pro":"Antwerpen","gew":"vlaams"},"13002":{"inw":2680,"opp":7.48,"zip":2387,"name":"Baarle-Hertog","pro":"Antwerpen","gew":"vlaams"},"13003":{"inw":21969,"opp":72.88,"zip":2490,"name":"Balen","pro":"Antwerpen","gew":"vlaams"},"13004":{"inw":17600,"opp":37.48,"zip":2340,"name":"Beerse","pro":"Antwerpen","gew":"vlaams"},"13006":{"inw":9400,"opp":27.03,"zip":2480,"name":"Dessel","pro":"Antwerpen","gew":"vlaams"},"13008":{"inw":38837,"opp":109.85,"zip":2440,"name":"Geel","pro":"Antwerpen","gew":"vlaams"},"13010":{"inw":11128,"opp":28.36,"zip":2280,"name":"Grobbendonk","pro":"Antwerpen","gew":"vlaams"},"13011":{"inw":27677,"opp":48.56,"zip":2200,"name":"Herentals","pro":"Antwerpen","gew":"vlaams"},"13012":{"inw":8804,"opp":23.55,"zip":2270,"name":"Herenthout","pro":"Antwerpen","gew":"vlaams"},"13013":{"inw":14516,"opp":52.32,"zip":2230,"name":"Herselt","pro":"Antwerpen","gew":"vlaams"},"13014":{"inw":21077,"opp":105.32,"zip":2320,"name":"Hoogstraten","pro":"Antwerpen","gew":"vlaams"},"13016":{"inw":10268,"opp":17.35,"zip":2235,"name":"Hulshout","pro":"Antwerpen","gew":"vlaams"},"13017":{"inw":18052,"opp":71.52,"zip":2460,"name":"Kasterlee","pro":"Antwerpen","gew":"vlaams"},"13019":{"inw":16386,"opp":59.4,"zip":2275,"name":"Lille","pro":"Antwerpen","gew":"vlaams"},"13021":{"inw":10190,"opp":36.29,"zip":2450,"name":"Meerhout","pro":"Antwerpen","gew":"vlaams"},"13023":{"inw":8693,"opp":44.56,"zip":2330,"name":"Merksplas","pro":"Antwerpen","gew":"vlaams"},"13025":{"inw":35685,"opp":114.26,"zip":2400,"name":"Mol","pro":"Antwerpen","gew":"vlaams"},"13029":{"inw":12186,"opp":23.17,"zip":2250,"name":"Olen","pro":"Antwerpen","gew":"vlaams"},"13031":{"inw":13163,"opp":38.8,"zip":2360,"name":"Oud-Turnhout","pro":"Antwerpen","gew":"vlaams"},"13035":{"inw":14712,"opp":94.99,"zip":2380,"name":"Ravels","pro":"Antwerpen","gew":"vlaams"},"13036":{"inw":10897,"opp":48.39,"zip":2470,"name":"Retie","pro":"Antwerpen","gew":"vlaams"},"13037":{"inw":11691,"opp":46.79,"zip":2310,"name":"Rijkevorsel","pro":"Antwerpen","gew":"vlaams"},"13040":{"inw":42637,"opp":56.06,"zip":2300,"name":"Turnhout","pro":"Antwerpen","gew":"vlaams"},"13044":{"inw":7773,"opp":27.62,"zip":2290,"name":"Vorselaar","pro":"Antwerpen","gew":"vlaams"},"13046":{"inw":10961,"opp":11.85,"zip":2350,"name":"Vosselaar","pro":"Antwerpen","gew":"vlaams"},"13049":{"inw":24594,"opp":55.13,"zip":2260,"name":"Westerlo","pro":"Antwerpen","gew":"vlaams"},"13053":{"inw":15810,"opp":42.48,"zip":2430,"name":"Laakdal","pro":"Antwerpen","gew":"vlaams"},"21001":{"inw":116332,"opp":17.74,"zip":1070,"name":"Anderlecht","pro":"Brussels H. Gewest","gew":"brussels"},"21002":{"inw":32835,"opp":9.03,"zip":1160,"name":"Oudergem","pro":"Brussels H. Gewest","gew":"brussels"},"21003":{"inw":23927,"opp":2.95,"zip":1082,"name":"Sint-Agatha-Berchem","pro":"Brussels H. Gewest","gew":"brussels"},"21004":{"inw":175534,"opp":32.61,"zip":1000,"name":"Brussel","pro":"Brussels H. Gewest","gew":"brussels"},"21005":{"inw":46773,"opp":3.15,"zip":1040,"name":"Etterbeek","pro":"Brussels H. Gewest","gew":"brussels"},"21006":{"inw":38448,"opp":5.02,"zip":1140,"name":"Evere","pro":"Brussels H. Gewest","gew":"brussels"},"21007":{"inw":55012,"opp":6.25,"zip":1190,"name":"Vorst","pro":"Brussels H. Gewest","gew":"brussels"},"21008":{"inw":24066,"opp":2.46,"zip":1083,"name":"Ganshoren","pro":"Brussels H. Gewest","gew":"brussels"},"21009":{"inw":84754,"opp":6.34,"zip":1050,"name":"Elsene","pro":"Brussels H. Gewest","gew":"brussels"},"21010":{"inw":50724,"opp":5.04,"zip":1090,"name":"Jette","pro":"Brussels H. Gewest","gew":"brussels"},"21011":{"inw":21525,"opp":1.17,"zip":1081,"name":"Koekelberg","pro":"Brussels H. Gewest","gew":"brussels"},"21012":{"inw":95576,"opp":5.89,"zip":1080,"name":"Sint-Jans-Molenbeek","pro":"Brussels H. Gewest","gew":"brussels"},"21013":{"inw":50472,"opp":2.52,"zip":1060,"name":"Sint-Gillis","pro":"Brussels H. Gewest","gew":"brussels"},"21014":{"inw":27332,"opp":1.14,"zip":1210,"name":"Sint-Joost-Ten-Node","pro":"Brussels H. Gewest","gew":"brussels"},"21015":{"inw":131030,"opp":8.14,"zip":1030,"name":"Schaarbeek","pro":"Brussels H. Gewest","gew":"brussels"},"21016":{"inw":81280,"opp":22.91,"zip":1180,"name":"Ukkel","pro":"Brussels H. Gewest","gew":"brussels"},"21017":{"inw":24408,"opp":12.93,"zip":1170,"name":"Watermaal-Bosvoorde","pro":"Brussels H. Gewest","gew":"brussels"},"21018":{"inw":54022,"opp":7.22,"zip":1200,"name":"Sint-Lambrechts-Woluwe","pro":"Brussels H. Gewest","gew":"brussels"},"21019":{"inw":41077,"opp":8.85,"zip":1150,"name":"Sint-Pieters-Woluwe","pro":"Brussels H. Gewest","gew":"brussels"},"23002":{"inw":32069,"opp":49.64,"zip":1730,"name":"Asse","pro":"Vlaams-Brabant","gew":"vlaams"},"23003":{"inw":24588,"opp":30.01,"zip":1650,"name":"Beersel","pro":"Vlaams-Brabant","gew":"vlaams"},"23009":{"inw":2185,"opp":19.78,"zip":1547,"name":"Bever","pro":"Vlaams-Brabant","gew":"vlaams"},"23016":{"inw":41243,"opp":41.18,"zip":1700,"name":"Dilbeek","pro":"Vlaams-Brabant","gew":"vlaams"},"23023":{"inw":8632,"opp":34.93,"zip":1570,"name":"Galmaarden","pro":"Vlaams-Brabant","gew":"vlaams"},"23024":{"inw":9218,"opp":39.7,"zip":1755,"name":"Gooik","pro":"Vlaams-Brabant","gew":"vlaams"},"23025":{"inw":36558,"opp":38.61,"zip":1850,"name":"Grimbergen","pro":"Vlaams-Brabant","gew":"vlaams"},"23027":{"inw":38023,"opp":44.4,"zip":1500,"name":"Halle","pro":"Vlaams-Brabant","gew":"vlaams"},"23032":{"inw":6612,"opp":44.63,"zip":1540,"name":"Herne","pro":"Vlaams-Brabant","gew":"vlaams"},"23033":{"inw":10796,"opp":20.43,"zip":1560,"name":"Hoeilaart","pro":"Vlaams-Brabant","gew":"vlaams"},"23038":{"inw":11597,"opp":33.49,"zip":1910,"name":"Kampenhout","pro":"Vlaams-Brabant","gew":"vlaams"},"23039":{"inw":9316,"opp":15.25,"zip":1880,"name":"Kapelle-Op-Den-Bos","pro":"Vlaams-Brabant","gew":"vlaams"},"23044":{"inw":12902,"opp":10.08,"zip":1770,"name":"Liedekerke","pro":"Vlaams-Brabant","gew":"vlaams"},"23045":{"inw":18233,"opp":36.29,"zip":1840,"name":"Londerzeel","pro":"Vlaams-Brabant","gew":"vlaams"},"23047":{"inw":14454,"opp":11.59,"zip":1830,"name":"Machelen","pro":"Vlaams-Brabant","gew":"vlaams"},"23050":{"inw":18612,"opp":34.82,"zip":1860,"name":"Meise","pro":"Vlaams-Brabant","gew":"vlaams"},"23052":{"inw":15920,"opp":36.72,"zip":1785,"name":"Merchtem","pro":"Vlaams-Brabant","gew":"vlaams"},"23060":{"inw":14140,"opp":19.69,"zip":1745,"name":"Opwijk","pro":"Vlaams-Brabant","gew":"vlaams"},"23062":{"inw":24774,"opp":44.43,"zip":3090,"name":"Overijse","pro":"Vlaams-Brabant","gew":"vlaams"},"23064":{"inw":4402,"opp":36.05,"zip":1670,"name":"Pepingen","pro":"Vlaams-Brabant","gew":"vlaams"},"23077":{"inw":33270,"opp":40.38,"zip":1600,"name":"Sint-Pieters-Leeuw","pro":"Vlaams-Brabant","gew":"vlaams"},"23081":{"inw":11859,"opp":23.46,"zip":1820,"name":"Steenokkerzeel","pro":"Vlaams-Brabant","gew":"vlaams"},"23086":{"inw":15335,"opp":24.48,"zip":1740,"name":"Ternat","pro":"Vlaams-Brabant","gew":"vlaams"},"23088":{"inw":42418,"opp":21.48,"zip":1800,"name":"Vilvoorde","pro":"Vlaams-Brabant","gew":"vlaams"},"23094":{"inw":32678,"opp":27.62,"zip":1930,"name":"Zaventem","pro":"Vlaams-Brabant","gew":"vlaams"},"23096":{"inw":22778,"opp":42.83,"zip":1804,"name":"Zemst","pro":"Vlaams-Brabant","gew":"vlaams"},"23097":{"inw":11367,"opp":21.69,"zip":1760,"name":"Roosdaal","pro":"Vlaams-Brabant","gew":"vlaams"},"23098":{"inw":5222,"opp":2.49,"zip":1620,"name":"Drogenbos","pro":"Vlaams-Brabant","gew":"vlaams"},"23099":{"inw":13697,"opp":5.8,"zip":1950,"name":"Kraainem","pro":"Vlaams-Brabant","gew":"vlaams"},"23100":{"inw":4745,"opp":4.15,"zip":1630,"name":"Linkebeek","pro":"Vlaams-Brabant","gew":"vlaams"},"23101":{"inw":17955,"opp":22.77,"zip":1640,"name":"Sint-Genesius-Rode","pro":"Vlaams-Brabant","gew":"vlaams"},"23102":{"inw":15721,"opp":8.74,"zip":1780,"name":"Wemmel","pro":"Vlaams-Brabant","gew":"vlaams"},"23103":{"inw":14032,"opp":6.82,"zip":1970,"name":"Wezembeek-Oppem","pro":"Vlaams-Brabant","gew":"vlaams"},"23104":{"inw":8963,"opp":30.8,"zip":1750,"name":"Lennik","pro":"Vlaams-Brabant","gew":"vlaams"},"23105":{"inw":13016,"opp":17.7,"zip":1790,"name":"Affligem","pro":"Vlaams-Brabant","gew":"vlaams"},"24001":{"inw":29288,"opp":62.52,"zip":3200,"name":"Aarschot","pro":"Vlaams-Brabant","gew":"vlaams"},"24007":{"inw":10029,"opp":17.62,"zip":3130,"name":"Begijnendijk","pro":"Vlaams-Brabant","gew":"vlaams"},"24008":{"inw":6080,"opp":37.17,"zip":3460,"name":"Bekkevoort","pro":"Vlaams-Brabant","gew":"vlaams"},"24009":{"inw":9725,"opp":29.75,"zip":3060,"name":"Bertem","pro":"Vlaams-Brabant","gew":"vlaams"},"24011":{"inw":9881,"opp":39.73,"zip":3360,"name":"Bierbeek","pro":"Vlaams-Brabant","gew":"vlaams"},"24014":{"inw":12057,"opp":18.64,"zip":3190,"name":"Boortmeerbeek","pro":"Vlaams-Brabant","gew":"vlaams"},"24016":{"inw":8063,"opp":30.75,"zip":3370,"name":"Boutersem","pro":"Vlaams-Brabant","gew":"vlaams"},"24020":{"inw":23429,"opp":58.2,"zip":3290,"name":"Diest","pro":"Vlaams-Brabant","gew":"vlaams"},"24028":{"inw":5987,"opp":35.17,"zip":3450,"name":"Geetbets","pro":"Vlaams-Brabant","gew":"vlaams"},"24033":{"inw":14262,"opp":30.57,"zip":3150,"name":"Haacht","pro":"Vlaams-Brabant","gew":"vlaams"},"24038":{"inw":21034,"opp":32.73,"zip":3020,"name":"Herent","pro":"Vlaams-Brabant","gew":"vlaams"},"24041":{"inw":6819,"opp":33.93,"zip":3320,"name":"Hoegaarden","pro":"Vlaams-Brabant","gew":"vlaams"},"24043":{"inw":9963,"opp":38.5,"zip":3220,"name":"Holsbeek","pro":"Vlaams-Brabant","gew":"vlaams"},"24045":{"inw":9678,"opp":39.64,"zip":3040,"name":"Huldenberg","pro":"Vlaams-Brabant","gew":"vlaams"},"24048":{"inw":12803,"opp":18.39,"zip":3140,"name":"Keerbergen","pro":"Vlaams-Brabant","gew":"vlaams"},"24054":{"inw":7893,"opp":49.06,"zip":3470,"name":"Kortenaken","pro":"Vlaams-Brabant","gew":"vlaams"},"24055":{"inw":19647,"opp":34.52,"zip":3070,"name":"Kortenberg","pro":"Vlaams-Brabant","gew":"vlaams"},"24059":{"inw":15840,"opp":54.05,"zip":3400,"name":"Landen","pro":"Vlaams-Brabant","gew":"vlaams"},"24062":{"inw":98376,"opp":56.63,"zip":3000,"name":"Leuven","pro":"Vlaams-Brabant","gew":"vlaams"},"24066":{"inw":14213,"opp":46.13,"zip":3210,"name":"Lubbeek","pro":"Vlaams-Brabant","gew":"vlaams"},"24086":{"inw":10989,"opp":31.14,"zip":3050,"name":"Oud-Heverlee","pro":"Vlaams-Brabant","gew":"vlaams"},"24094":{"inw":16397,"opp":37.57,"zip":3110,"name":"Rotselaar","pro":"Vlaams-Brabant","gew":"vlaams"},"24104":{"inw":21461,"opp":32.92,"zip":3080,"name":"Tervuren","pro":"Vlaams-Brabant","gew":"vlaams"},"24107":{"inw":33950,"opp":71.77,"zip":3300,"name":"Tienen","pro":"Vlaams-Brabant","gew":"vlaams"},"24109":{"inw":14751,"opp":21.57,"zip":3120,"name":"Tremelo","pro":"Vlaams-Brabant","gew":"vlaams"},"24130":{"inw":8324,"opp":46.73,"zip":3440,"name":"Zoutleeuw","pro":"Vlaams-Brabant","gew":"vlaams"},"24133":{"inw":7196,"opp":36.37,"zip":3350,"name":"Linter","pro":"Vlaams-Brabant","gew":"vlaams"},"24134":{"inw":22809,"opp":50.5,"zip":3270,"name":"Scherpenheuvel-Zichem","pro":"Vlaams-Brabant","gew":"vlaams"},"24135":{"inw":10643,"opp":44.16,"zip":3390,"name":"Tielt-Winge","pro":"Vlaams-Brabant","gew":"vlaams"},"24137":{"inw":5382,"opp":26.78,"zip":3380,"name":"Glabbeek","pro":"Vlaams-Brabant","gew":"vlaams"},"25005":{"inw":7023,"opp":38.58,"zip":1320,"name":"Bevekom","pro":"Waals-Brabant","gew":"waals"},"25014":{"inw":39756,"opp":52.12,"zip":1420,"name":"Eigenbrakel","pro":"Waals-Brabant","gew":"waals"},"25015":{"inw":10137,"opp":22.7,"zip":1440,"name":"Kasteelbrakel","pro":"Waals-Brabant","gew":"waals"},"25018":{"inw":11716,"opp":48.09,"zip":1325,"name":"Chaumont-Gistoux","pro":"Waals-Brabant","gew":"waals"},"25023":{"inw":10252,"opp":26.64,"zip":1490,"name":"Court-Saint-Etienne","pro":"Waals-Brabant","gew":"waals"},"25031":{"inw":15316,"opp":89.57,"zip":1470,"name":"Genepi\u00ebn","pro":"Waals-Brabant","gew":"waals"},"25037":{"inw":13033,"opp":55.44,"zip":1390,"name":"Graven","pro":"Waals-Brabant","gew":"waals"},"25043":{"inw":5215,"opp":38.79,"zip":1315,"name":"Incourt","pro":"Waals-Brabant","gew":"waals"},"25044":{"inw":6687,"opp":34.92,"zip":1460,"name":"Itter","pro":"Waals-Brabant","gew":"waals"},"25048":{"inw":13728,"opp":73.31,"zip":1370,"name":"Geldenaken","pro":"Waals-Brabant","gew":"waals"},"25050":{"inw":7404,"opp":15.6,"zip":1310,"name":"Terhulpen","pro":"Waals-Brabant","gew":"waals"},"25068":{"inw":7319,"opp":18.63,"zip":1435,"name":"Mont-Saint-Guibert","pro":"Waals-Brabant","gew":"waals"},"25072":{"inw":27692,"opp":60.6,"zip":1400,"name":"Nijvel","pro":"Waals-Brabant","gew":"waals"},"25084":{"inw":8829,"opp":50.81,"zip":1360,"name":"Perwijs","pro":"Waals-Brabant","gew":"waals"},"25091":{"inw":21956,"opp":17.54,"zip":1330,"name":"Rixensart","pro":"Waals-Brabant","gew":"waals"},"25105":{"inw":25156,"opp":32.66,"zip":1480,"name":"Tubeke","pro":"Waals-Brabant","gew":"waals"},"25107":{"inw":10395,"opp":47.45,"zip":1495,"name":"Villers-La-Ville","pro":"Waals-Brabant","gew":"waals"},"25110":{"inw":29568,"opp":21.03,"zip":1410,"name":"Waterloo","pro":"Waals-Brabant","gew":"waals"},"25112":{"inw":33604,"opp":41.8,"zip":1300,"name":"Waver","pro":"Waals-Brabant","gew":"waals"},"25117":{"inw":7411,"opp":31.27,"zip":1450,"name":"Chastre","pro":"Waals-Brabant","gew":"waals"},"25118":{"inw":3329,"opp":16.62,"zip":1357,"name":"H\u00e9l\u00e9cine","pro":"Waals-Brabant","gew":"waals"},"25119":{"inw":14195,"opp":47.22,"zip":1380,"name":"Lasne","pro":"Waals-Brabant","gew":"waals"},"25120":{"inw":8707,"opp":50.5,"zip":1350,"name":"Orp-Jauche","pro":"Waals-Brabant","gew":"waals"},"25121":{"inw":31261,"opp":32.96,"zip":1340,"name":"Ottignies-Louvain-La-Neuve","pro":"Waals-Brabant","gew":"waals"},"25122":{"inw":6216,"opp":48.68,"zip":1367,"name":"Ramillies","pro":"Waals-Brabant","gew":"waals"},"25123":{"inw":10897,"opp":39.08,"zip":1430,"name":"Rebecq","pro":"Waals-Brabant","gew":"waals"},"25124":{"inw":6898,"opp":37.94,"zip":1457,"name":"Walhain","pro":"Waals-Brabant","gew":"waals"},"31003":{"inw":15481,"opp":71.68,"zip":8730,"name":"Beernem","pro":"West-Vlaanderen","gew":"vlaams"},"31004":{"inw":20014,"opp":17.41,"zip":8370,"name":"Blankenberge","pro":"West-Vlaanderen","gew":"vlaams"},"31005":{"inw":117886,"opp":138.4,"zip":8000,"name":"Brugge","pro":"West-Vlaanderen","gew":"vlaams"},"31006":{"inw":10883,"opp":89.52,"zip":8340,"name":"Damme","pro":"West-Vlaanderen","gew":"vlaams"},"31012":{"inw":13854,"opp":53.76,"zip":8490,"name":"Jabbeke","pro":"West-Vlaanderen","gew":"vlaams"},"31022":{"inw":23120,"opp":79.65,"zip":8020,"name":"Oostkamp","pro":"West-Vlaanderen","gew":"vlaams"},"31033":{"inw":20343,"opp":45.23,"zip":8820,"name":"Torhout","pro":"West-Vlaanderen","gew":"vlaams"},"31040":{"inw":22407,"opp":60.34,"zip":8210,"name":"Zedelgem","pro":"West-Vlaanderen","gew":"vlaams"},"31042":{"inw":2713,"opp":48.86,"zip":8377,"name":"Zuienkerke","pro":"West-Vlaanderen","gew":"vlaams"},"31043":{"inw":33452,"opp":56.44,"zip":8300,"name":"Knokke-Heist","pro":"West-Vlaanderen","gew":"vlaams"},"32003":{"inw":16515,"opp":149.4,"zip":8600,"name":"Diksmuide","pro":"West-Vlaanderen","gew":"vlaams"},"32006":{"inw":9994,"opp":55.89,"zip":8650,"name":"Houthulst","pro":"West-Vlaanderen","gew":"vlaams"},"32010":{"inw":8705,"opp":39.19,"zip":8680,"name":"Koekelare","pro":"West-Vlaanderen","gew":"vlaams"},"32011":{"inw":12348,"opp":55.0,"zip":8610,"name":"Kortemark","pro":"West-Vlaanderen","gew":"vlaams"},"32030":{"inw":3282,"opp":62.94,"zip":8647,"name":"Lo-Reninge","pro":"West-Vlaanderen","gew":"vlaams"},"33011":{"inw":34971,"opp":130.61,"zip":8900,"name":"Ieper","pro":"West-Vlaanderen","gew":"vlaams"},"33016":{"inw":1037,"opp":3.58,"zip":8957,"name":"Mesen","pro":"West-Vlaanderen","gew":"vlaams"},"33021":{"inw":19944,"opp":119.33,"zip":8970,"name":"Poperinge","pro":"West-Vlaanderen","gew":"vlaams"},"33029":{"inw":18426,"opp":43.61,"zip":8940,"name":"Wervik","pro":"West-Vlaanderen","gew":"vlaams"},"33037":{"inw":12396,"opp":67.57,"zip":8980,"name":"Zonnebeke","pro":"West-Vlaanderen","gew":"vlaams"},"33039":{"inw":7883,"opp":94.24,"zip":8950,"name":"Heuvelland","pro":"West-Vlaanderen","gew":"vlaams"},"33040":{"inw":8015,"opp":52.53,"zip":8920,"name":"Langemark-Poelkapelle","pro":"West-Vlaanderen","gew":"vlaams"},"33041":{"inw":3623,"opp":38.15,"zip":8640,"name":"Vleteren","pro":"West-Vlaanderen","gew":"vlaams"},"34002":{"inw":14567,"opp":41.79,"zip":8570,"name":"Anzegem","pro":"West-Vlaanderen","gew":"vlaams"},"34003":{"inw":9788,"opp":21.75,"zip":8580,"name":"Avelgem","pro":"West-Vlaanderen","gew":"vlaams"},"34009":{"inw":11683,"opp":16.82,"zip":8540,"name":"Deerlijk","pro":"West-Vlaanderen","gew":"vlaams"},"34013":{"inw":27446,"opp":29.14,"zip":8530,"name":"Harelbeke","pro":"West-Vlaanderen","gew":"vlaams"},"34022":{"inw":75219,"opp":80.02,"zip":8500,"name":"Kortrijk","pro":"West-Vlaanderen","gew":"vlaams"},"34023":{"inw":13084,"opp":10.01,"zip":8520,"name":"Kuurne","pro":"West-Vlaanderen","gew":"vlaams"},"34025":{"inw":5743,"opp":13.15,"zip":8860,"name":"Lendelede","pro":"West-Vlaanderen","gew":"vlaams"},"34027":{"inw":32905,"opp":33.07,"zip":8930,"name":"Menen","pro":"West-Vlaanderen","gew":"vlaams"},"34040":{"inw":37341,"opp":44.34,"zip":8790,"name":"Waregem","pro":"West-Vlaanderen","gew":"vlaams"},"34041":{"inw":31307,"opp":38.76,"zip":8560,"name":"Wevelgem","pro":"West-Vlaanderen","gew":"vlaams"},"34042":{"inw":24271,"opp":63.24,"zip":8550,"name":"Zwevegem","pro":"West-Vlaanderen","gew":"vlaams"},"34043":{"inw":2155,"opp":10.78,"zip":8587,"name":"Spiere-Helkijn","pro":"West-Vlaanderen","gew":"vlaams"},"35002":{"inw":17301,"opp":13.08,"zip":8450,"name":"Bredene","pro":"West-Vlaanderen","gew":"vlaams"},"35005":{"inw":11753,"opp":42.25,"zip":8470,"name":"Gistel","pro":"West-Vlaanderen","gew":"vlaams"},"35006":{"inw":13952,"opp":45.33,"zip":8480,"name":"Ichtegem","pro":"West-Vlaanderen","gew":"vlaams"},"35011":{"inw":19302,"opp":75.65,"zip":8430,"name":"Middelkerke","pro":"West-Vlaanderen","gew":"vlaams"},"35013":{"inw":70460,"opp":37.72,"zip":8400,"name":"Oostende","pro":"West-Vlaanderen","gew":"vlaams"},"35014":{"inw":9222,"opp":35.38,"zip":8460,"name":"Oudenburg","pro":"West-Vlaanderen","gew":"vlaams"},"35029":{"inw":12587,"opp":42.17,"zip":8420,"name":"De Haan","pro":"West-Vlaanderen","gew":"vlaams"},"36006":{"inw":10071,"opp":37.84,"zip":8830,"name":"Hooglede","pro":"West-Vlaanderen","gew":"vlaams"},"36007":{"inw":10691,"opp":16.16,"zip":8770,"name":"Ingelmunster","pro":"West-Vlaanderen","gew":"vlaams"},"36008":{"inw":27376,"opp":25.48,"zip":8870,"name":"Izegem","pro":"West-Vlaanderen","gew":"vlaams"},"36010":{"inw":9507,"opp":24.76,"zip":8880,"name":"Ledegem","pro":"West-Vlaanderen","gew":"vlaams"},"36011":{"inw":8612,"opp":25.93,"zip":8810,"name":"Lichtervelde","pro":"West-Vlaanderen","gew":"vlaams"},"36012":{"inw":10942,"opp":35.34,"zip":8890,"name":"Moorslede","pro":"West-Vlaanderen","gew":"vlaams"},"36015":{"inw":60386,"opp":59.79,"zip":8800,"name":"Roeselare","pro":"West-Vlaanderen","gew":"vlaams"},"36019":{"inw":11193,"opp":46.24,"zip":8840,"name":"Staden","pro":"West-Vlaanderen","gew":"vlaams"},"37002":{"inw":8371,"opp":25.94,"zip":8720,"name":"Dentergem","pro":"West-Vlaanderen","gew":"vlaams"},"37007":{"inw":11023,"opp":29.35,"zip":8760,"name":"Meulebeke","pro":"West-Vlaanderen","gew":"vlaams"},"37010":{"inw":7704,"opp":16.62,"zip":8780,"name":"Oostrozebeke","pro":"West-Vlaanderen","gew":"vlaams"},"37011":{"inw":6793,"opp":34.42,"zip":8740,"name":"Pittem","pro":"West-Vlaanderen","gew":"vlaams"},"37012":{"inw":5263,"opp":30.2,"zip":8755,"name":"Ruiselede","pro":"West-Vlaanderen","gew":"vlaams"},"37015":{"inw":20070,"opp":68.5,"zip":8700,"name":"Tielt","pro":"West-Vlaanderen","gew":"vlaams"},"37017":{"inw":9440,"opp":21.76,"zip":8710,"name":"Wielsbeke","pro":"West-Vlaanderen","gew":"vlaams"},"37018":{"inw":14179,"opp":68.42,"zip":8750,"name":"Wingene","pro":"West-Vlaanderen","gew":"vlaams"},"37020":{"inw":9067,"opp":34.58,"zip":8850,"name":"Ardooie","pro":"West-Vlaanderen","gew":"vlaams"},"38002":{"inw":5005,"opp":80.01,"zip":8690,"name":"Alveringem","pro":"West-Vlaanderen","gew":"vlaams"},"38008":{"inw":10836,"opp":23.9,"zip":8660,"name":"De Panne","pro":"West-Vlaanderen","gew":"vlaams"},"38014":{"inw":22180,"opp":43.96,"zip":8670,"name":"Koksijde","pro":"West-Vlaanderen","gew":"vlaams"},"38016":{"inw":11411,"opp":31.0,"zip":8620,"name":"Nieuwpoort","pro":"West-Vlaanderen","gew":"vlaams"},"38025":{"inw":11498,"opp":96.34,"zip":8630,"name":"Veurne","pro":"West-Vlaanderen","gew":"vlaams"},"41002":{"inw":83709,"opp":78.12,"zip":9300,"name":"Aalst","pro":"Oost-Vlaanderen","gew":"vlaams"},"41011":{"inw":19556,"opp":13.77,"zip":9470,"name":"Denderleeuw","pro":"Oost-Vlaanderen","gew":"vlaams"},"41018":{"inw":32981,"opp":79.71,"zip":9500,"name":"Geraardsbergen","pro":"Oost-Vlaanderen","gew":"vlaams"},"41024":{"inw":17962,"opp":30.3,"zip":9450,"name":"Haaltert","pro":"Oost-Vlaanderen","gew":"vlaams"},"41027":{"inw":17454,"opp":47.4,"zip":9550,"name":"Herzele","pro":"Oost-Vlaanderen","gew":"vlaams"},"41034":{"inw":18237,"opp":29.69,"zip":9340,"name":"Lede","pro":"Oost-Vlaanderen","gew":"vlaams"},"41048":{"inw":37965,"opp":72.57,"zip":9400,"name":"Ninove","pro":"Oost-Vlaanderen","gew":"vlaams"},"41063":{"inw":10171,"opp":26.67,"zip":9520,"name":"Sint-Lievens-Houtem","pro":"Oost-Vlaanderen","gew":"vlaams"},"41081":{"inw":25806,"opp":56.66,"zip":9620,"name":"Zottegem","pro":"Oost-Vlaanderen","gew":"vlaams"},"41082":{"inw":19768,"opp":34.03,"zip":9420,"name":"Erpe-Mere","pro":"Oost-Vlaanderen","gew":"vlaams"},"42003":{"inw":14847,"opp":37.82,"zip":9290,"name":"Berlare","pro":"Oost-Vlaanderen","gew":"vlaams"},"42004":{"inw":14508,"opp":25.25,"zip":9255,"name":"Buggenhout","pro":"Oost-Vlaanderen","gew":"vlaams"},"42006":{"inw":44938,"opp":55.67,"zip":9200,"name":"Dendermonde","pro":"Oost-Vlaanderen","gew":"vlaams"},"42008":{"inw":24603,"opp":40.21,"zip":9220,"name":"Hamme","pro":"Oost-Vlaanderen","gew":"vlaams"},"42010":{"inw":12405,"opp":32.07,"zip":9270,"name":"Laarne","pro":"Oost-Vlaanderen","gew":"vlaams"},"42011":{"inw":18718,"opp":26.92,"zip":9280,"name":"Lebbeke","pro":"Oost-Vlaanderen","gew":"vlaams"},"42023":{"inw":10675,"opp":31.93,"zip":9250,"name":"Waasmunster","pro":"Oost-Vlaanderen","gew":"vlaams"},"42025":{"inw":24755,"opp":36.68,"zip":9230,"name":"Wetteren","pro":"Oost-Vlaanderen","gew":"vlaams"},"42026":{"inw":11509,"opp":22.87,"zip":9260,"name":"Wichelen","pro":"Oost-Vlaanderen","gew":"vlaams"},"42028":{"inw":20848,"opp":33.06,"zip":9240,"name":"Zele","pro":"Oost-Vlaanderen","gew":"vlaams"},"43002":{"inw":14052,"opp":87.22,"zip":9960,"name":"Assenede","pro":"Oost-Vlaanderen","gew":"vlaams"},"43005":{"inw":20551,"opp":30.05,"zip":9900,"name":"Eeklo","pro":"Oost-Vlaanderen","gew":"vlaams"},"43007":{"inw":6337,"opp":33.71,"zip":9970,"name":"Kaprijke","pro":"Oost-Vlaanderen","gew":"vlaams"},"43010":{"inw":23420,"opp":94.64,"zip":9990,"name":"Maldegem","pro":"Oost-Vlaanderen","gew":"vlaams"},"43014":{"inw":6663,"opp":74.5,"zip":9980,"name":"Sint-Laureins","pro":"Oost-Vlaanderen","gew":"vlaams"},"43018":{"inw":12494,"opp":13.71,"zip":9060,"name":"Zelzate","pro":"Oost-Vlaanderen","gew":"vlaams"},"44001":{"inw":20073,"opp":81.92,"zip":9880,"name":"Aalter","pro":"Oost-Vlaanderen","gew":"vlaams"},"44011":{"inw":30380,"opp":75.53,"zip":9800,"name":"Deinze","pro":"Oost-Vlaanderen","gew":"vlaams"},"44012":{"inw":10310,"opp":17.98,"zip":9840,"name":"De Pinte","pro":"Oost-Vlaanderen","gew":"vlaams"},"44013":{"inw":17834,"opp":26.56,"zip":9070,"name":"Destelbergen","pro":"Oost-Vlaanderen","gew":"vlaams"},"44019":{"inw":34485,"opp":75.04,"zip":9940,"name":"Evergem","pro":"Oost-Vlaanderen","gew":"vlaams"},"44020":{"inw":12595,"opp":31.35,"zip":9890,"name":"Gavere","pro":"Oost-Vlaanderen","gew":"vlaams"},"44021":{"inw":253266,"opp":156.18,"zip":9000,"name":"Gent","pro":"Oost-Vlaanderen","gew":"vlaams"},"44029":{"inw":8177,"opp":37.27,"zip":9910,"name":"Knesselare","pro":"Oost-Vlaanderen","gew":"vlaams"},"44034":{"inw":22073,"opp":60.34,"zip":9080,"name":"Lochristi","pro":"Oost-Vlaanderen","gew":"vlaams"},"44036":{"inw":9507,"opp":19.48,"zip":9920,"name":"Lovendegem","pro":"Oost-Vlaanderen","gew":"vlaams"},"44040":{"inw":11135,"opp":15.21,"zip":9090,"name":"Melle","pro":"Oost-Vlaanderen","gew":"vlaams"},"44043":{"inw":24047,"opp":36.65,"zip":9820,"name":"Merelbeke","pro":"Oost-Vlaanderen","gew":"vlaams"},"44045":{"inw":6278,"opp":37.8,"zip":9180,"name":"Moerbeke-Waas","pro":"Oost-Vlaanderen","gew":"vlaams"},"44048":{"inw":11538,"opp":35.19,"zip":9810,"name":"Nazareth","pro":"Oost-Vlaanderen","gew":"vlaams"},"44049":{"inw":12039,"opp":51.89,"zip":9850,"name":"Nevele","pro":"Oost-Vlaanderen","gew":"vlaams"},"44052":{"inw":13531,"opp":43.12,"zip":9860,"name":"Oosterzele","pro":"Oost-Vlaanderen","gew":"vlaams"},"44064":{"inw":8494,"opp":14.34,"zip":9830,"name":"Sint-Martens-Latem","pro":"Oost-Vlaanderen","gew":"vlaams"},"44072":{"inw":7871,"opp":21.91,"zip":9950,"name":"Waarschoot","pro":"Oost-Vlaanderen","gew":"vlaams"},"44073":{"inw":7450,"opp":34.53,"zip":9185,"name":"Wachtebeke","pro":"Oost-Vlaanderen","gew":"vlaams"},"44080":{"inw":8378,"opp":38.78,"zip":9930,"name":"Zomergem","pro":"Oost-Vlaanderen","gew":"vlaams"},"44081":{"inw":15498,"opp":32.52,"zip":9870,"name":"Zulte","pro":"Oost-Vlaanderen","gew":"vlaams"},"45017":{"inw":8132,"opp":46.76,"zip":9770,"name":"Kruishoutem","pro":"Oost-Vlaanderen","gew":"vlaams"},"45035":{"inw":30788,"opp":68.06,"zip":9700,"name":"Oudenaarde","pro":"Oost-Vlaanderen","gew":"vlaams"},"45041":{"inw":25783,"opp":34.48,"zip":9600,"name":"Ronse","pro":"Oost-Vlaanderen","gew":"vlaams"},"45057":{"inw":7535,"opp":23.93,"zip":9750,"name":"Zingem","pro":"Oost-Vlaanderen","gew":"vlaams"},"45059":{"inw":14640,"opp":56.46,"zip":9660,"name":"Brakel","pro":"Oost-Vlaanderen","gew":"vlaams"},"45060":{"inw":6443,"opp":30.38,"zip":9690,"name":"Kluisbergen","pro":"Oost-Vlaanderen","gew":"vlaams"},"45061":{"inw":6332,"opp":41.96,"zip":9790,"name":"Wortegem-Petegem","pro":"Oost-Vlaanderen","gew":"vlaams"},"45062":{"inw":2040,"opp":11.2,"zip":9667,"name":"Horebeke","pro":"Oost-Vlaanderen","gew":"vlaams"},"45063":{"inw":6548,"opp":26.13,"zip":9570,"name":"Lierde","pro":"Oost-Vlaanderen","gew":"vlaams"},"45064":{"inw":6341,"opp":45.63,"zip":9680,"name":"Maarkedal","pro":"Oost-Vlaanderen","gew":"vlaams"},"45065":{"inw":8047,"opp":33.82,"zip":9630,"name":"Zwalm","pro":"Oost-Vlaanderen","gew":"vlaams"},"46003":{"inw":47423,"opp":150.18,"zip":9120,"name":"Beveren","pro":"Oost-Vlaanderen","gew":"vlaams"},"46013":{"inw":16421,"opp":33.42,"zip":9150,"name":"Kruibeke","pro":"Oost-Vlaanderen","gew":"vlaams"},"46014":{"inw":40494,"opp":67.5,"zip":9160,"name":"Lokeren","pro":"Oost-Vlaanderen","gew":"vlaams"},"46020":{"inw":19235,"opp":54.98,"zip":9170,"name":"Sint-Gillis-Waas","pro":"Oost-Vlaanderen","gew":"vlaams"},"46021":{"inw":74289,"opp":83.8,"zip":9100,"name":"Sint-Niklaas (Prov. Oost-Vlaanderen)","pro":"Oost-Vlaanderen","gew":"vlaams"},"46024":{"inw":17782,"opp":44.8,"zip":9190,"name":"Stekene","pro":"Oost-Vlaanderen","gew":"vlaams"},"46025":{"inw":29182,"opp":39.91,"zip":9140,"name":"Temse","pro":"Oost-Vlaanderen","gew":"vlaams"},"51004":{"inw":28755,"opp":126.95,"zip":7800,"name":"Aat","pro":"Henegouwen","gew":"waals"},"51008":{"inw":13989,"opp":61.55,"zip":7970,"name":"Beloeil","pro":"Henegouwen","gew":"waals"},"51009":{"inw":11880,"opp":43.42,"zip":7320,"name":"Bernissart","pro":"Henegouwen","gew":"waals"},"51012":{"inw":3631,"opp":28.4,"zip":7940,"name":"Brugelette","pro":"Henegouwen","gew":"waals"},"51014":{"inw":6870,"opp":46.91,"zip":7950,"name":"Chi\u00e8vres","pro":"Henegouwen","gew":"waals"},"51017":{"inw":5925,"opp":44.69,"zip":7890,"name":"Elzele","pro":"Henegouwen","gew":"waals"},"51019":{"inw":3459,"opp":23.0,"zip":7880,"name":"Vloesberg","pro":"Henegouwen","gew":"waals"},"51065":{"inw":11658,"opp":112.44,"zip":7910,"name":"Frasnes-Lez-Anvaing","pro":"Henegouwen","gew":"waals"},"52010":{"inw":14726,"opp":18.1,"zip":7160,"name":"Chapelle-Lez-Herlaimont","pro":"Henegouwen","gew":"waals"},"52011":{"inw":202480,"opp":102.08,"zip":6000,"name":"Charleroi","pro":"Henegouwen","gew":"waals"},"52012":{"inw":36439,"opp":27.03,"zip":6200,"name":"Chatelet","pro":"Henegouwen","gew":"waals"},"52015":{"inw":30960,"opp":44.24,"zip":6180,"name":"Courcelles","pro":"Henegouwen","gew":"waals"},"52018":{"inw":11285,"opp":10.39,"zip":6240,"name":"Farciennes","pro":"Henegouwen","gew":"waals"},"52021":{"inw":22859,"opp":59.28,"zip":6220,"name":"Fleurus","pro":"Henegouwen","gew":"waals"},"52022":{"inw":17699,"opp":28.41,"zip":6140,"name":"Fontaine-Leveque","pro":"Henegouwen","gew":"waals"},"52025":{"inw":12352,"opp":47.1,"zip":6280,"name":"Gerpinnes","pro":"Henegouwen","gew":"waals"},"52043":{"inw":22869,"opp":19.6,"zip":7170,"name":"Manage","pro":"Henegouwen","gew":"waals"},"52048":{"inw":10042,"opp":15.1,"zip":6110,"name":"Montigny-Le-Tilleul","pro":"Henegouwen","gew":"waals"},"52055":{"inw":17113,"opp":55.73,"zip":6230,"name":"Pont-A-Celles","pro":"Henegouwen","gew":"waals"},"52063":{"inw":10955,"opp":62.77,"zip":7180,"name":"Seneffe","pro":"Henegouwen","gew":"waals"},"52074":{"inw":10811,"opp":22.19,"zip":6250,"name":"Aiseau-Presles","pro":"Henegouwen","gew":"waals"},"52075":{"inw":9264,"opp":42.55,"zip":6210,"name":"Les Bons Villers","pro":"Henegouwen","gew":"waals"},"53014":{"inw":19846,"opp":20.01,"zip":7300,"name":"Boussu","pro":"Henegouwen","gew":"waals"},"53020":{"inw":16866,"opp":33.32,"zip":7370,"name":"Dour","pro":"Henegouwen","gew":"waals"},"53028":{"inw":21734,"opp":25.95,"zip":7080,"name":"Frameries","pro":"Henegouwen","gew":"waals"},"53039":{"inw":6856,"opp":25.99,"zip":7350,"name":"Hensies","pro":"Henegouwen","gew":"waals"},"53044":{"inw":10435,"opp":57.86,"zip":7050,"name":"Jurbeke","pro":"Henegouwen","gew":"waals"},"53046":{"inw":4370,"opp":49.42,"zip":7870,"name":"Lens","pro":"Henegouwen","gew":"waals"},"53053":{"inw":95231,"opp":146.53,"zip":7000,"name":"Bergen","pro":"Henegouwen","gew":"waals"},"53065":{"inw":18989,"opp":11.08,"zip":7390,"name":"Quaregnon","pro":"Henegouwen","gew":"waals"},"53068":{"inw":6687,"opp":21.22,"zip":7380,"name":"Qui\u00e9vrain","pro":"Henegouwen","gew":"waals"},"53070":{"inw":22907,"opp":70.18,"zip":7330,"name":"Saint-Ghislain","pro":"Henegouwen","gew":"waals"},"53082":{"inw":20659,"opp":13.62,"zip":7340,"name":"Colfontaine","pro":"Henegouwen","gew":"waals"},"53083":{"inw":5182,"opp":43.65,"zip":7387,"name":"Honnelles","pro":"Henegouwen","gew":"waals"},"53084":{"inw":8042,"opp":65.16,"zip":7040,"name":"Qu\u00e9vy","pro":"Henegouwen","gew":"waals"},"54007":{"inw":57068,"opp":40.08,"zip":7700,"name":"Moeskroen","pro":"Henegouwen","gew":"waals"},"54010":{"inw":18132,"opp":61.09,"zip":7780,"name":"Komen","pro":"Henegouwen","gew":"waals"},"55004":{"inw":21442,"opp":84.68,"zip":7090,"name":"Sgravenbrakel","pro":"Henegouwen","gew":"waals"},"55010":{"inw":13454,"opp":40.59,"zip":7850,"name":"Edingen","pro":"Henegouwen","gew":"waals"},"55022":{"inw":80375,"opp":64.24,"zip":7100,"name":"La Louvi\u00e8re","pro":"Henegouwen","gew":"waals"},"55023":{"inw":18564,"opp":72.29,"zip":7860,"name":"Lessen","pro":"Henegouwen","gew":"waals"},"55035":{"inw":8454,"opp":42.8,"zip":7070,"name":"Le Roeulx","pro":"Henegouwen","gew":"waals"},"55039":{"inw":8291,"opp":67.68,"zip":7830,"name":"Opzullik","pro":"Henegouwen","gew":"waals"},"55040":{"inw":26998,"opp":110.3,"zip":7060,"name":"Zinnik","pro":"Henegouwen","gew":"waals"},"55050":{"inw":10811,"opp":34.77,"zip":7190,"name":"Ecaussinnes","pro":"Henegouwen","gew":"waals"},"56001":{"inw":11944,"opp":17.02,"zip":6150,"name":"Anderlues","pro":"Henegouwen","gew":"waals"},"56005":{"inw":7064,"opp":92.97,"zip":6500,"name":"Beaumont","pro":"Henegouwen","gew":"waals"},"56011":{"inw":33297,"opp":60.66,"zip":7130,"name":"Binche","pro":"Henegouwen","gew":"waals"},"56016":{"inw":9856,"opp":197.1,"zip":6460,"name":"Chimay","pro":"Henegouwen","gew":"waals"},"56022":{"inw":9848,"opp":44.23,"zip":6560,"name":"Erquelinnes","pro":"Henegouwen","gew":"waals"},"56029":{"inw":3976,"opp":86.03,"zip":6440,"name":"Froidchapelle","pro":"Henegouwen","gew":"waals"},"56044":{"inw":5755,"opp":32.08,"zip":6540,"name":"Lobbes","pro":"Henegouwen","gew":"waals"},"56049":{"inw":4278,"opp":30.24,"zip":6567,"name":"Merbes-Le-Chateau","pro":"Henegouwen","gew":"waals"},"56051":{"inw":5329,"opp":85.58,"zip":6590,"name":"Momignies","pro":"Henegouwen","gew":"waals"},"56078":{"inw":14539,"opp":76.17,"zip":6530,"name":"Thuin","pro":"Henegouwen","gew":"waals"},"56085":{"inw":7687,"opp":72.73,"zip":7120,"name":"Estinnes","pro":"Henegouwen","gew":"waals"},"56086":{"inw":13658,"opp":45.68,"zip":6120,"name":"Ham-Sur-Heure-Nalinnes","pro":"Henegouwen","gew":"waals"},"56087":{"inw":19044,"opp":20.26,"zip":7140,"name":"Morlanwelz","pro":"Henegouwen","gew":"waals"},"56088":{"inw":4840,"opp":72.97,"zip":6470,"name":"Sivry-Rance","pro":"Henegouwen","gew":"waals"},"57003":{"inw":7766,"opp":31.13,"zip":7640,"name":"Antoing","pro":"Henegouwen","gew":"waals"},"57018":{"inw":5555,"opp":67.14,"zip":7760,"name":"Celles","pro":"Henegouwen","gew":"waals"},"57027":{"inw":10228,"opp":31.75,"zip":7730,"name":"Estaimpuis","pro":"Henegouwen","gew":"waals"},"57062":{"inw":5588,"opp":32.91,"zip":7740,"name":"Pecq","pro":"Henegouwen","gew":"waals"},"57064":{"inw":17354,"opp":60.56,"zip":7600,"name":"P\u00e9ruwelz","pro":"Henegouwen","gew":"waals"},"57072":{"inw":5145,"opp":23.72,"zip":7610,"name":"Rumes","pro":"Henegouwen","gew":"waals"},"57081":{"inw":69756,"opp":213.75,"zip":7500,"name":"Doornik","pro":"Henegouwen","gew":"waals"},"57093":{"inw":8096,"opp":46.11,"zip":7620,"name":"Brunehaut","pro":"Henegouwen","gew":"waals"},"57094":{"inw":13625,"opp":73.53,"zip":7900,"name":"Leuze-En-Hainaut","pro":"Henegouwen","gew":"waals"},"57095":{"inw":3718,"opp":26.93,"zip":7750,"name":"Mont-De-Lenclus","pro":"Henegouwen","gew":"waals"},"61003":{"inw":14103,"opp":27.61,"zip":4540,"name":"Amay","pro":"Luik","gew":"waals"},"61010":{"inw":3116,"opp":32.57,"zip":4210,"name":"Burdinne","pro":"Luik","gew":"waals"},"61012":{"inw":4510,"opp":79.12,"zip":4560,"name":"Clavier","pro":"Luik","gew":"waals"},"61019":{"inw":4842,"opp":56.9,"zip":4190,"name":"Ferri\u00e8res","pro":"Luik","gew":"waals"},"61024":{"inw":3890,"opp":27.8,"zip":4180,"name":"Hamoir","pro":"Luik","gew":"waals"},"61028":{"inw":5145,"opp":38.32,"zip":4217,"name":"H\u00e9ron","pro":"Luik","gew":"waals"},"61031":{"inw":21270,"opp":47.74,"zip":4500,"name":"Hoei","pro":"Luik","gew":"waals"},"61039":{"inw":5383,"opp":30.0,"zip":4570,"name":"Marchin","pro":"Luik","gew":"waals"},"61041":{"inw":4196,"opp":40.37,"zip":4577,"name":"Modave","pro":"Luik","gew":"waals"},"61043":{"inw":5815,"opp":35.9,"zip":4550,"name":"Nandrin","pro":"Luik","gew":"waals"},"61048":{"inw":2758,"opp":40.22,"zip":4590,"name":"Ouffet","pro":"Luik","gew":"waals"},"61063":{"inw":4074,"opp":24.21,"zip":4537,"name":"Verlaine","pro":"Luik","gew":"waals"},"61068":{"inw":6461,"opp":32.71,"zip":4530,"name":"Villers-Le-Bouillet","pro":"Luik","gew":"waals"},"61072":{"inw":13537,"opp":43.95,"zip":4520,"name":"Wanze","pro":"Luik","gew":"waals"},"61079":{"inw":4107,"opp":37.08,"zip":4160,"name":"Anthisnes","pro":"Luik","gew":"waals"},"61080":{"inw":5982,"opp":27.74,"zip":4480,"name":"Engis","pro":"Luik","gew":"waals"},"61081":{"inw":2650,"opp":37.12,"zip":4557,"name":"Tinlot","pro":"Luik","gew":"waals"},"62003":{"inw":28263,"opp":23.35,"zip":4430,"name":"Ans","pro":"Luik","gew":"waals"},"62006":{"inw":9201,"opp":27.16,"zip":4340,"name":"Awans","pro":"Luik","gew":"waals"},"62009":{"inw":11988,"opp":79.97,"zip":4920,"name":"Aywaille","pro":"Luik","gew":"waals"},"62011":{"inw":8986,"opp":38.17,"zip":4690,"name":"Bitsingen","pro":"Luik","gew":"waals"},"62015":{"inw":12051,"opp":7.32,"zip":4610,"name":"Beyne-Heusay","pro":"Luik","gew":"waals"},"62022":{"inw":21001,"opp":25.52,"zip":4050,"name":"Chaudfontaine","pro":"Luik","gew":"waals"},"62026":{"inw":5325,"opp":22.68,"zip":4170,"name":"Comblain-Au-Pont","pro":"Luik","gew":"waals"},"62027":{"inw":7225,"opp":36.06,"zip":4606,"name":"Dalhem","pro":"Luik","gew":"waals"},"62032":{"inw":13094,"opp":34.05,"zip":4130,"name":"Esneux","pro":"Luik","gew":"waals"},"62038":{"inw":16485,"opp":13.72,"zip":4620,"name":"Fl\u00e9ron","pro":"Luik","gew":"waals"},"62051":{"inw":39365,"opp":23.54,"zip":4040,"name":"Herstal","pro":"Luik","gew":"waals"},"62060":{"inw":9217,"opp":35.36,"zip":4450,"name":"Juprelle","pro":"Luik","gew":"waals"},"62063":{"inw":195968,"opp":69.39,"zip":4000,"name":"Luik","pro":"Luik","gew":"waals"},"62079":{"inw":24659,"opp":36.11,"zip":4680,"name":"Oupeye","pro":"Luik","gew":"waals"},"62093":{"inw":23969,"opp":6.84,"zip":4420,"name":"Sint-Niklaas (Prov. Luik)","pro":"Luik","gew":"waals"},"62096":{"inw":63972,"opp":35.34,"zip":4100,"name":"Seraing","pro":"Luik","gew":"waals"},"62099":{"inw":16622,"opp":27.14,"zip":4630,"name":"Soumagne","pro":"Luik","gew":"waals"},"62100":{"inw":14402,"opp":74.28,"zip":4140,"name":"Sprimont","pro":"Luik","gew":"waals"},"62108":{"inw":17572,"opp":27.99,"zip":4600,"name":"Wezet","pro":"Luik","gew":"waals"},"62118":{"inw":22077,"opp":34.24,"zip":4460,"name":"Grace-Hollogne","pro":"Luik","gew":"waals"},"62119":{"inw":13218,"opp":26.07,"zip":4670,"name":"Bl\u00e9gny","pro":"Luik","gew":"waals"},"62120":{"inw":26061,"opp":36.68,"zip":4400,"name":"Fl\u00e9malle","pro":"Luik","gew":"waals"},"62121":{"inw":9968,"opp":31.69,"zip":4120,"name":"Neupr\u00e9","pro":"Luik","gew":"waals"},"62122":{"inw":8198,"opp":24.2,"zip":4870,"name":"Trooz","pro":"Luik","gew":"waals"},"63001":{"inw":5511,"opp":125.15,"zip":4770,"name":"Amel","pro":"Luik","gew":"waals"},"63003":{"inw":4216,"opp":18.83,"zip":4880,"name":"Aubel","pro":"Luik","gew":"waals"},"63004":{"inw":4351,"opp":85.73,"zip":4837,"name":"Baelen","pro":"Luik","gew":"waals"},"63012":{"inw":5503,"opp":150.49,"zip":4760,"name":"Bullingen","pro":"Luik","gew":"waals"},"63013":{"inw":5609,"opp":97.31,"zip":4750,"name":"Butgenbach","pro":"Luik","gew":"waals"},"63020":{"inw":15181,"opp":14.01,"zip":4820,"name":"Dison","pro":"Luik","gew":"waals"},"63023":{"inw":19122,"opp":103.74,"zip":4700,"name":"Eupen","pro":"Luik","gew":"waals"},"63035":{"inw":17371,"opp":56.84,"zip":4650,"name":"Herve","pro":"Luik","gew":"waals"},"63038":{"inw":8497,"opp":107.75,"zip":4845,"name":"Jalhay","pro":"Luik","gew":"waals"},"63040":{"inw":10897,"opp":18.12,"zip":4720,"name":"Kelmis","pro":"Luik","gew":"waals"},"63045":{"inw":3569,"opp":92.08,"zip":4990,"name":"Lierneux","pro":"Luik","gew":"waals"},"63046":{"inw":5858,"opp":24.63,"zip":4830,"name":"Limburg","pro":"Luik","gew":"waals"},"63048":{"inw":5627,"opp":28.73,"zip":4710,"name":"Lontzen","pro":"Luik","gew":"waals"},"63049":{"inw":12384,"opp":99.96,"zip":4960,"name":"Malmedy","pro":"Luik","gew":"waals"},"63057":{"inw":3897,"opp":15.99,"zip":4877,"name":"Olne","pro":"Luik","gew":"waals"},"63058":{"inw":9771,"opp":24.79,"zip":4860,"name":"Pepinster","pro":"Luik","gew":"waals"},"63061":{"inw":10551,"opp":74.21,"zip":4730,"name":"Raeren","pro":"Luik","gew":"waals"},"63067":{"inw":9553,"opp":146.93,"zip":4780,"name":"Sankt-Vith","pro":"Luik","gew":"waals"},"63072":{"inw":10489,"opp":39.85,"zip":4900,"name":"Spa","pro":"Luik","gew":"waals"},"63073":{"inw":7116,"opp":85.07,"zip":4970,"name":"Stavelot","pro":"Luik","gew":"waals"},"63075":{"inw":3109,"opp":108.45,"zip":4987,"name":"Stoumont","pro":"Luik","gew":"waals"},"63076":{"inw":12134,"opp":83.36,"zip":4910,"name":"Theux","pro":"Luik","gew":"waals"},"63079":{"inw":55356,"opp":33.07,"zip":4800,"name":"Verviers","pro":"Luik","gew":"waals"},"63080":{"inw":7410,"opp":96.93,"zip":4950,"name":"Weismes","pro":"Luik","gew":"waals"},"63084":{"inw":9812,"opp":24.47,"zip":4840,"name":"Welkenraedt","pro":"Luik","gew":"waals"},"63086":{"inw":2531,"opp":68.9,"zip":4980,"name":"Trois-Ponts","pro":"Luik","gew":"waals"},"63087":{"inw":3955,"opp":108.96,"zip":4790,"name":"Burg-Reuland","pro":"Luik","gew":"waals"},"63088":{"inw":10158,"opp":53.18,"zip":4850,"name":"Plombi\u00e8res","pro":"Luik","gew":"waals"},"63089":{"inw":5676,"opp":28.69,"zip":4890,"name":"Thimister-Clermont","pro":"Luik","gew":"waals"},"64008":{"inw":3025,"opp":14.49,"zip":4257,"name":"Berloz","pro":"Luik","gew":"waals"},"64015":{"inw":6148,"opp":44.0,"zip":4260,"name":"Braives","pro":"Luik","gew":"waals"},"64021":{"inw":3215,"opp":16.83,"zip":4367,"name":"Crisn\u00e9e","pro":"Luik","gew":"waals"},"64023":{"inw":3026,"opp":23.31,"zip":4357,"name":"Donceel","pro":"Luik","gew":"waals"},"64025":{"inw":3250,"opp":19.25,"zip":4347,"name":"Fexhe-Le-Haut-Clocher","pro":"Luik","gew":"waals"},"64029":{"inw":3323,"opp":23.62,"zip":4250,"name":"Geer","pro":"Luik","gew":"waals"},"64034":{"inw":15840,"opp":86.53,"zip":4280,"name":"Hannuit","pro":"Luik","gew":"waals"},"64047":{"inw":3268,"opp":14.75,"zip":4287,"name":"Lijsem","pro":"Luik","gew":"waals"},"64056":{"inw":3794,"opp":19.64,"zip":4360,"name":"Oerle","pro":"Luik","gew":"waals"},"64063":{"inw":5861,"opp":22.58,"zip":4350,"name":"Remicourt","pro":"Luik","gew":"waals"},"64065":{"inw":6598,"opp":20.9,"zip":4470,"name":"Saint-Georges-Sur-Meuse","pro":"Luik","gew":"waals"},"64074":{"inw":14786,"opp":31.04,"zip":4300,"name":"Borgworm","pro":"Luik","gew":"waals"},"64075":{"inw":2833,"opp":24.45,"zip":4219,"name":"Wasseiges","pro":"Luik","gew":"waals"},"64076":{"inw":3884,"opp":28.48,"zip":4317,"name":"Faimes","pro":"Luik","gew":"waals"},"71002":{"inw":8119,"opp":22.07,"zip":3665,"name":"As","pro":"Limburg","gew":"vlaams"},"71004":{"inw":44885,"opp":78.3,"zip":3580,"name":"Beringen","pro":"Limburg","gew":"vlaams"},"71011":{"inw":18757,"opp":41.19,"zip":3590,"name":"Diepenbeek","pro":"Limburg","gew":"vlaams"},"71016":{"inw":65463,"opp":87.85,"zip":3600,"name":"Genk","pro":"Limburg","gew":"vlaams"},"71017":{"inw":8383,"opp":56.49,"zip":3890,"name":"Gingelom","pro":"Limburg","gew":"vlaams"},"71020":{"inw":9546,"opp":36.29,"zip":3545,"name":"Halen","pro":"Limburg","gew":"vlaams"},"71022":{"inw":76331,"opp":102.24,"zip":3500,"name":"Hasselt","pro":"Limburg","gew":"vlaams"},"71024":{"inw":12463,"opp":42.83,"zip":3540,"name":"Herk-De-Stad","pro":"Limburg","gew":"vlaams"},"71034":{"inw":15213,"opp":22.49,"zip":3970,"name":"Leopoldsburg","pro":"Limburg","gew":"vlaams"},"71037":{"inw":14571,"opp":53.38,"zip":3560,"name":"Lummen","pro":"Limburg","gew":"vlaams"},"71045":{"inw":6841,"opp":22.46,"zip":3850,"name":"Nieuwerkerken","pro":"Limburg","gew":"vlaams"},"71047":{"inw":10190,"opp":24.98,"zip":3660,"name":"Opglabbeek","pro":"Limburg","gew":"vlaams"},"71053":{"inw":39957,"opp":106.9,"zip":3800,"name":"Sint-Truiden","pro":"Limburg","gew":"vlaams"},"71057":{"inw":18334,"opp":51.35,"zip":3980,"name":"Tessenderlo","pro":"Limburg","gew":"vlaams"},"71066":{"inw":21195,"opp":39.34,"zip":3520,"name":"Zonhoven","pro":"Limburg","gew":"vlaams"},"71067":{"inw":7138,"opp":32.07,"zip":3690,"name":"Zutendaal","pro":"Limburg","gew":"vlaams"},"71069":{"inw":10617,"opp":32.69,"zip":3945,"name":"Ham","pro":"Limburg","gew":"vlaams"},"71070":{"inw":32774,"opp":53.23,"zip":3550,"name":"Heusden-Zolder","pro":"Limburg","gew":"vlaams"},"72003":{"inw":12869,"opp":59.34,"zip":3950,"name":"Bocholt","pro":"Limburg","gew":"vlaams"},"72004":{"inw":15660,"opp":64.96,"zip":3960,"name":"Bree","pro":"Limburg","gew":"vlaams"},"72018":{"inw":12348,"opp":54.76,"zip":3640,"name":"Kinrooi","pro":"Limburg","gew":"vlaams"},"72020":{"inw":33852,"opp":102.37,"zip":3920,"name":"Lommel","pro":"Limburg","gew":"vlaams"},"72021":{"inw":25115,"opp":76.91,"zip":3680,"name":"Maaseik","pro":"Limburg","gew":"vlaams"},"72025":{"inw":16836,"opp":42.78,"zip":3910,"name":"Neerpelt","pro":"Limburg","gew":"vlaams"},"72029":{"inw":14848,"opp":40.85,"zip":3900,"name":"Overpelt","pro":"Limburg","gew":"vlaams"},"72030":{"inw":16284,"opp":86.95,"zip":3990,"name":"Peer","pro":"Limburg","gew":"vlaams"},"72037":{"inw":14371,"opp":43.66,"zip":3930,"name":"Hamont-Achel","pro":"Limburg","gew":"vlaams"},"72038":{"inw":12266,"opp":76.7,"zip":3940,"name":"Hechtel-Eksel","pro":"Limburg","gew":"vlaams"},"72039":{"inw":30666,"opp":78.27,"zip":3530,"name":"Houthalen-Helchteren","pro":"Limburg","gew":"vlaams"},"72040":{"inw":13024,"opp":91.26,"zip":3670,"name":"Meeuwen-Gruitrode","pro":"Limburg","gew":"vlaams"},"72041":{"inw":20199,"opp":65.61,"zip":3650,"name":"Dilsen","pro":"Limburg","gew":"vlaams"},"73001":{"inw":11421,"opp":28.14,"zip":3570,"name":"Alken","pro":"Limburg","gew":"vlaams"},"73006":{"inw":31710,"opp":75.9,"zip":3740,"name":"Bilzen","pro":"Limburg","gew":"vlaams"},"73009":{"inw":10588,"opp":51.12,"zip":3840,"name":"Borgloon","pro":"Limburg","gew":"vlaams"},"73022":{"inw":7237,"opp":53.07,"zip":3870,"name":"Heers","pro":"Limburg","gew":"vlaams"},"73028":{"inw":86,"opp":1.35,"zip":3717,"name":"Herstappe","pro":"Limburg","gew":"vlaams"},"73032":{"inw":9608,"opp":30.02,"zip":3730,"name":"Hoeselt","pro":"Limburg","gew":"vlaams"},"73040":{"inw":8380,"opp":33.9,"zip":3720,"name":"Kortessem","pro":"Limburg","gew":"vlaams"},"73042":{"inw":25731,"opp":59.0,"zip":3620,"name":"Lanaken","pro":"Limburg","gew":"vlaams"},"73066":{"inw":16539,"opp":57.88,"zip":3770,"name":"Riemst","pro":"Limburg","gew":"vlaams"},"73083":{"inw":30677,"opp":87.56,"zip":3700,"name":"Tongeren","pro":"Limburg","gew":"vlaams"},"73098":{"inw":7423,"opp":26.72,"zip":3830,"name":"Wellen","pro":"Limburg","gew":"vlaams"},"73107":{"inw":37609,"opp":76.28,"zip":3630,"name":"Maasmechelen","pro":"Limburg","gew":"vlaams"},"73109":{"inw":4080,"opp":50.63,"zip":3790,"name":"Voeren","pro":"Limburg","gew":"vlaams"},"81001":{"inw":29016,"opp":118.64,"zip":6700,"name":"Aarlen","pro":"Luxemburg","gew":"waals"},"81003":{"inw":5370,"opp":70.94,"zip":6717,"name":"Attert","pro":"Luxemburg","gew":"waals"},"81004":{"inw":16427,"opp":45.6,"zip":6790,"name":"Aubange","pro":"Luxemburg","gew":"waals"},"81013":{"inw":1770,"opp":29.67,"zip":6630,"name":"Martelange","pro":"Luxemburg","gew":"waals"},"81015":{"inw":8073,"opp":52.43,"zip":6780,"name":"Messancy","pro":"Luxemburg","gew":"waals"},"82003":{"inw":15405,"opp":172.03,"zip":6600,"name":"Bastenaken","pro":"Luxemburg","gew":"waals"},"82005":{"inw":3431,"opp":91.67,"zip":6686,"name":"Bertogne","pro":"Luxemburg","gew":"waals"},"82009":{"inw":2209,"opp":74.11,"zip":6637,"name":"Fauvillers","pro":"Luxemburg","gew":"waals"},"82014":{"inw":5176,"opp":166.58,"zip":6660,"name":"Houffalize","pro":"Luxemburg","gew":"waals"},"82032":{"inw":7657,"opp":139.76,"zip":6690,"name":"Vielsalm","pro":"Luxemburg","gew":"waals"},"82036":{"inw":5439,"opp":135.87,"zip":6640,"name":"Vaux-Sur-Sure","pro":"Luxemburg","gew":"waals"},"82037":{"inw":5074,"opp":165.11,"zip":6670,"name":"Gouvy","pro":"Luxemburg","gew":"waals"},"82038":{"inw":2466,"opp":97.87,"zip":6680,"name":"Sainte-Ode","pro":"Luxemburg","gew":"waals"},"83012":{"inw":11432,"opp":156.61,"zip":6940,"name":"Durbuy","pro":"Luxemburg","gew":"waals"},"83013":{"inw":3251,"opp":78.44,"zip":6997,"name":"Erez\u00e9e","pro":"Luxemburg","gew":"waals"},"83028":{"inw":5436,"opp":57.32,"zip":6990,"name":"Hotton","pro":"Luxemburg","gew":"waals"},"83031":{"inw":4166,"opp":147.52,"zip":6980,"name":"La Roche-En-Ardenne","pro":"Luxemburg","gew":"waals"},"83034":{"inw":17449,"opp":121.4,"zip":6900,"name":"Marche-En-Famenne","pro":"Luxemburg","gew":"waals"},"83040":{"inw":5410,"opp":111.96,"zip":6950,"name":"Nassogne","pro":"Luxemburg","gew":"waals"},"83044":{"inw":2535,"opp":68.83,"zip":6987,"name":"Rendeux","pro":"Luxemburg","gew":"waals"},"83049":{"inw":2804,"opp":91.81,"zip":6970,"name":"Tenneville","pro":"Luxemburg","gew":"waals"},"83055":{"inw":3374,"opp":119.81,"zip":6960,"name":"Manhay","pro":"Luxemburg","gew":"waals"},"84009":{"inw":8605,"opp":137.7,"zip":6880,"name":"Bertrix","pro":"Luxemburg","gew":"waals"},"84010":{"inw":5413,"opp":149.09,"zip":6830,"name":"Bouillon","pro":"Luxemburg","gew":"waals"},"84016":{"inw":1453,"opp":56.4,"zip":6929,"name":"Daverdisse","pro":"Luxemburg","gew":"waals"},"84029":{"inw":1588,"opp":58.81,"zip":6887,"name":"Herbeumont","pro":"Luxemburg","gew":"waals"},"84033":{"inw":5118,"opp":172.92,"zip":6860,"name":"L\u00e9glise","pro":"Luxemburg","gew":"waals"},"84035":{"inw":5063,"opp":139.72,"zip":6890,"name":"Libin","pro":"Luxemburg","gew":"waals"},"84043":{"inw":7466,"opp":113.79,"zip":6840,"name":"Neufchateau","pro":"Luxemburg","gew":"waals"},"84050":{"inw":5316,"opp":112.96,"zip":6850,"name":"Paliseul","pro":"Luxemburg","gew":"waals"},"84059":{"inw":5625,"opp":111.16,"zip":6870,"name":"Saint-Hubert","pro":"Luxemburg","gew":"waals"},"84068":{"inw":2465,"opp":56.64,"zip":6927,"name":"Tellin","pro":"Luxemburg","gew":"waals"},"84075":{"inw":3031,"opp":67.52,"zip":6920,"name":"Wellin","pro":"Luxemburg","gew":"waals"},"84077":{"inw":10932,"opp":177.86,"zip":6800,"name":"Libramont-Chevigny","pro":"Luxemburg","gew":"waals"},"85007":{"inw":5200,"opp":113.69,"zip":6810,"name":"Chiny","pro":"Luxemburg","gew":"waals"},"85009":{"inw":5695,"opp":78.1,"zip":6740,"name":"Etalle","pro":"Luxemburg","gew":"waals"},"85011":{"inw":5566,"opp":146.91,"zip":6820,"name":"Florenville","pro":"Luxemburg","gew":"waals"},"85024":{"inw":2744,"opp":54.2,"zip":6769,"name":"Meix-Devant-Virton","pro":"Luxemburg","gew":"waals"},"85026":{"inw":4504,"opp":34.81,"zip":6750,"name":"Musson","pro":"Luxemburg","gew":"waals"},"85034":{"inw":3525,"opp":35.86,"zip":6747,"name":"Saint-L\u00e9ger","pro":"Luxemburg","gew":"waals"},"85039":{"inw":4197,"opp":81.79,"zip":6730,"name":"Tintigny","pro":"Luxemburg","gew":"waals"},"85045":{"inw":11456,"opp":94.49,"zip":6760,"name":"Virton","pro":"Luxemburg","gew":"waals"},"85046":{"inw":8298,"opp":103.64,"zip":6720,"name":"Habay","pro":"Luxemburg","gew":"waals"},"85047":{"inw":2094,"opp":27.68,"zip":6767,"name":"Rouvroy","pro":"Luxemburg","gew":"waals"},"91005":{"inw":7078,"opp":65.67,"zip":5537,"name":"Anh\u00e9e","pro":"Namen","gew":"waals"},"91013":{"inw":8896,"opp":174.55,"zip":5570,"name":"Beauraing","pro":"Namen","gew":"waals"},"91015":{"inw":3215,"opp":109.59,"zip":5555,"name":"Bi\u00e8vre","pro":"Namen","gew":"waals"},"91030":{"inw":16154,"opp":147.56,"zip":5590,"name":"Ciney","pro":"Namen","gew":"waals"},"91034":{"inw":13555,"opp":99.8,"zip":5500,"name":"Dinant","pro":"Namen","gew":"waals"},"91054":{"inw":4490,"opp":151.56,"zip":5575,"name":"Gedinne","pro":"Namen","gew":"waals"},"91059":{"inw":7235,"opp":76.42,"zip":5360,"name":"Hamois","pro":"Namen","gew":"waals"},"91064":{"inw":5071,"opp":104.73,"zip":5370,"name":"Havelange","pro":"Namen","gew":"waals"},"91072":{"inw":4724,"opp":122.31,"zip":5560,"name":"Houyet","pro":"Namen","gew":"waals"},"91103":{"inw":3153,"opp":65.53,"zip":5520,"name":"Onhaye","pro":"Namen","gew":"waals"},"91114":{"inw":12512,"opp":165.27,"zip":5580,"name":"Rochefort","pro":"Namen","gew":"waals"},"91120":{"inw":5283,"opp":95.09,"zip":5377,"name":"Somme-Leuze","pro":"Namen","gew":"waals"},"91141":{"inw":9031,"opp":56.84,"zip":5530,"name":"Yvoir","pro":"Namen","gew":"waals"},"91142":{"inw":5875,"opp":56.46,"zip":5540,"name":"Hasti\u00e8re","pro":"Namen","gew":"waals"},"91143":{"inw":2669,"opp":101.04,"zip":5550,"name":"Vresse-Sur-Semois","pro":"Namen","gew":"waals"},"92003":{"inw":26068,"opp":86.17,"zip":5300,"name":"Andenne","pro":"Namen","gew":"waals"},"92006":{"inw":6909,"opp":78.16,"zip":5330,"name":"Assesse","pro":"Namen","gew":"waals"},"92035":{"inw":15771,"opp":102.81,"zip":5310,"name":"Eghez\u00e9e","pro":"Namen","gew":"waals"},"92045":{"inw":7978,"opp":38.89,"zip":5150,"name":"Floreffe","pro":"Namen","gew":"waals"},"92048":{"inw":10340,"opp":63.24,"zip":5070,"name":"Fosses-La-Ville","pro":"Namen","gew":"waals"},"92054":{"inw":7088,"opp":64.92,"zip":5340,"name":"Gesves","pro":"Namen","gew":"waals"},"92087":{"inw":12878,"opp":116.78,"zip":5640,"name":"Mettet","pro":"Namen","gew":"waals"},"92094":{"inw":110646,"opp":175.69,"zip":5000,"name":"Namen","pro":"Namen","gew":"waals"},"92097":{"inw":4974,"opp":56.62,"zip":5350,"name":"Ohey","pro":"Namen","gew":"waals"},"92101":{"inw":12044,"opp":50.34,"zip":5170,"name":"Profondeville","pro":"Namen","gew":"waals"},"92114":{"inw":8318,"opp":35.78,"zip":5140,"name":"Sombreffe","pro":"Namen","gew":"waals"},"92137":{"inw":27907,"opp":34.2,"zip":5060,"name":"Sambreville","pro":"Namen","gew":"waals"},"92138":{"inw":7689,"opp":65.61,"zip":5380,"name":"Fernelmont","pro":"Namen","gew":"waals"},"92140":{"inw":18817,"opp":46.8,"zip":5190,"name":"Jemeppe-Sur-Sambre","pro":"Namen","gew":"waals"},"92141":{"inw":9076,"opp":52.98,"zip":5080,"name":"La Bruy\u00e8re","pro":"Namen","gew":"waals"},"92142":{"inw":25181,"opp":95.86,"zip":5030,"name":"Gembloux","pro":"Namen","gew":"waals"},"93010":{"inw":4889,"opp":83.45,"zip":5630,"name":"Cerfontaine","pro":"Namen","gew":"waals"},"93014":{"inw":13939,"opp":206.93,"zip":5660,"name":"Couvin","pro":"Namen","gew":"waals"},"93018":{"inw":2921,"opp":84.02,"zip":5680,"name":"Doische","pro":"Namen","gew":"waals"},"93022":{"inw":11267,"opp":133.55,"zip":5620,"name":"Florennes","pro":"Namen","gew":"waals"},"93056":{"inw":9216,"opp":156.71,"zip":5600,"name":"Philippeville","pro":"Namen","gew":"waals"},"93088":{"inw":18477,"opp":123.18,"zip":5650,"name":"Walcourt","pro":"Namen","gew":"waals"},"93090":{"inw":5811,"opp":120.9,"zip":5670,"name":"Viroinval","pro":"Namen","gew":"waals"}}